[{"OBJECT_NAME":"STARLINK-3679","OBJECT_ID":"2022-025T","EPOCH":"2025-11-10T22:23:53.791008","MEAN_MOTION":15.06419764,"ECCENTRICITY":0.00013827,"INCLINATION":53.0524,"RA_OF_ASC_NODE":203.9463,"ARG_OF_PERICENTER":88.4915,"MEAN_ANOMALY":271.6233,"EPHEMERIS_TYPE":0,"CLASSIFICATION_TYPE":"U","NORAD_CAT_ID":51973,"ELEMENT_SET_NO":999,"REV_AT_EPOCH":20302,"BSTAR":0.00069965021,"MEAN_MOTION_DOT":0.00010161,"MEAN_MOTION_DDOT":0},{"OBJECT_NAME":"STARLINK-3672","OBJECT_ID":"2022-025U","EPOCH":"2025-11-10T09:23:41.107200","MEAN_MOTION":15.06391356,"ECCENTRICITY":0.00015021,"INCLINATION":53.055,"RA_OF_ASC_NODE":206.436,"ARG_OF_PERICENTER":78.0867,"MEAN_ANOMALY":282.029,"EPHEMERIS_TYPE":0,"CLASSIFICATION_TYPE":"U","NORAD_CAT_ID":51974,"ELEMENT_SET_NO":999,"REV_AT_EPOCH":20293,"BSTAR":5.4994276e-5,"MEAN_MOTION_DOT":5.38e-6,"MEAN_MOTION_DDOT":0},{"OBJECT_NAME":"STARLINK-3674","OBJECT_ID":"2022-025V","EPOCH":"2025-11-10T16:58:17.451552","MEAN_MOTION":15.06376802,"ECCENTRICITY":0.0001273,"INCLINATION":53.0554,"RA_OF_ASC_NODE":200.6138,"ARG_OF_PERICENTER":100.1924,"MEAN_ANOMALY":259.9209,"EPHEMERIS_TYPE":0,"CLASSIFICATION_TYPE":"U","NORAD_CAT_ID":51975,"ELEMENT_SET_NO":999,"REV_AT_EPOCH":20305,"BSTAR":2.5134638e-5,"MEAN_MOTION_DOT":9.3e-7,"MEAN_MOTION_DDOT":0},{"OBJECT_NAME":"STARLINK-3663","OBJECT_ID":"2022-025W","EPOCH":"2025-11-11T00:00:02.999808","MEAN_MOTION":15.84593839,"ECCENTRICITY":0.00046882,"INCLINATION":53.2037,"RA_OF_ASC_NODE":125.7849,"ARG_OF_PERICENTER":199.7021,"MEAN_ANOMALY":119.214,"EPHEMERIS_TYPE":0,"CLASSIFICATION_TYPE":"U","NORAD_CAT_ID":51976,"ELEMENT_SET_NO":999,"REV_AT_EPOCH":590,"BSTAR":0.0012710298,"MEAN_MOTION_DOT":0.00308938,"MEAN_MOTION_DDOT":0},{"OBJECT_NAME":"STARLINK-3660","OBJECT_ID":"2022-025X","EPOCH":"2025-11-10T09:15:50.537376","MEAN_MOTION":15.08836321,"ECCENTRICITY":0.00015422,"INCLINATION":53.218,"RA_OF_ASC_NODE":194.7066,"ARG_OF_PERICENTER":85.9563,"MEAN_ANOMALY":274.1606,"EPHEMERIS_TYPE":0,"CLASSIFICATION_TYPE":"U","NORAD_CAT_ID":51977,"ELEMENT_SET_NO":999,"REV_AT_EPOCH":20332,"BSTAR":6.0260016e-5,"MEAN_MOTION_DOT":6.71e-6,"MEAN_MOTION_DDOT":0},{"OBJECT_NAME":"STARLINK-3649","OBJECT_ID":"2022-025AA","EPOCH":"2025-11-10T04:04:29.784288","MEAN_MOTION":15.0880519,"ECCENTRICITY":0.00019232,"INCLINATION":53.2192,"RA_OF_ASC_NODE":215.667,"ARG_OF_PERICENTER":103.0772,"MEAN_ANOMALY":257.0435,"EPHEMERIS_TYPE":0,"CLASSIFICATION_TYPE":"U","NORAD_CAT_ID":51980,"ELEMENT_SET_NO":999,"REV_AT_EPOCH":20301,"BSTAR":2.7487735e-5,"MEAN_MOTION_DOT":1.49e-6,"MEAN_MOTION_DDOT":0},{"OBJECT_NAME":"STARLINK-3635","OBJECT_ID":"2022-025AB","EPOCH":"2025-11-10T17:08:44.260224","MEAN_MOTION":15.08837418,"ECCENTRICITY":0.0001673,"INCLINATION":53.2177,"RA_OF_ASC_NODE":213.223,"ARG_OF_PERICENTER":84.5177,"MEAN_ANOMALY":275.6006,"EPHEMERIS_TYPE":0,"CLASSIFICATION_TYPE":"U","NORAD_CAT_ID":51981,"ELEMENT_SET_NO":999,"REV_AT_EPOCH":20309,"BSTAR":0.00011298257,"MEAN_MOTION_DOT":1.51e-5,"MEAN_MOTION_DDOT":0},{"OBJECT_NAME":"STARLINK-3655","OBJECT_ID":"2022-025AD","EPOCH":"2025-11-10T17:03:28.162368","MEAN_MOTION":15.08822627,"ECCENTRICITY":0.00011547,"INCLINATION":53.2169,"RA_OF_ASC_NODE":213.2455,"ARG_OF_PERICENTER":75.7628,"MEAN_ANOMALY":284.3492,"EPHEMERIS_TYPE":0,"CLASSIFICATION_TYPE":"U","NORAD_CAT_ID":51983,"ELEMENT_SET_NO":999,"REV_AT_EPOCH":20309,"BSTAR":5.307445e-6,"MEAN_MOTION_DOT":-2.03e-6,"MEAN_MOTION_DDOT":0},{"OBJECT_NAME":"STARLINK-3664","OBJECT_ID":"2022-025AE","EPOCH":"2025-11-10T10:00:53.722944","MEAN_MOTION":15.0883373,"ECCENTRICITY":0.00011431,"INCLINATION":53.2157,"RA_OF_ASC_NODE":214.643,"ARG_OF_PERICENTER":96.0574,"MEAN_ANOMALY":264.0549,"EPHEMERIS_TYPE":0,"CLASSIFICATION_TYPE":"U","NORAD_CAT_ID":51984,"ELEMENT_SET_NO":999,"REV_AT_EPOCH":20305,"BSTAR":2.8806972e-5,"MEAN_MOTION_DOT":1.71e-6,"MEAN_MOTION_DDOT":0},{"OBJECT_NAME":"STARLINK-3651","OBJECT_ID":"2022-025AF","EPOCH":"2025-11-10T23:15:45.376416","MEAN_MOTION":15.08848406,"ECCENTRICITY":0.00013066,"INCLINATION":53.2168,"RA_OF_ASC_NODE":212.0881,"ARG_OF_PERICENTER":81.7391,"MEAN_ANOMALY":278.3749,"EPHEMERIS_TYPE":0,"CLASSIFICATION_TYPE":"U","NORAD_CAT_ID":51985,"ELEMENT_SET_NO":999,"REV_AT_EPOCH":20313,"BSTAR":0.00011864123,"MEAN_MOTION_DOT":1.601e-5,"MEAN_MOTION_DDOT":0},{"OBJECT_NAME":"STARLINK-3645","OBJECT_ID":"2022-025AG","EPOCH":"2025-11-10T17:14:00.940416","MEAN_MOTION":15.08839635,"ECCENTRICITY":0.00013477,"INCLINATION":53.2154,"RA_OF_ASC_NODE":213.0504,"ARG_OF_PERICENTER":84.5595,"MEAN_ANOMALY":275.5551,"EPHEMERIS_TYPE":0,"CLASSIFICATION_TYPE":"U","NORAD_CAT_ID":51986,"ELEMENT_SET_NO":999,"REV_AT_EPOCH":20310,"BSTAR":0.00022152845,"MEAN_MOTION_DOT":3.239e-5,"MEAN_MOTION_DDOT":0},{"OBJECT_NAME":"STARLINK-3644","OBJECT_ID":"2022-025AH","EPOCH":"2025-11-10T17:56:25.810944","MEAN_MOTION":15.08832999,"ECCENTRICITY":0.00016185,"INCLINATION":53.2191,"RA_OF_ASC_NODE":213.0736,"ARG_OF_PERICENTER":106.3732,"MEAN_ANOMALY":253.7438,"EPHEMERIS_TYPE":0,"CLASSIFICATION_TYPE":"U","NORAD_CAT_ID":51987,"ELEMENT_SET_NO":999,"REV_AT_EPOCH":20310,"BSTAR":7.1102278e-5,"MEAN_MOTION_DOT":8.44e-6,"MEAN_MOTION_DDOT":0},{"OBJECT_NAME":"STARLINK-3640","OBJECT_ID":"2022-025AJ","EPOCH":"2025-11-10T17:29:56.142528","MEAN_MOTION":15.08850002,"ECCENTRICITY":0.00014979,"INCLINATION":53.215,"RA_OF_ASC_NODE":213.1578,"ARG_OF_PERICENTER":87.6904,"MEAN_ANOMALY":272.4259,"EPHEMERIS_TYPE":0,"CLASSIFICATION_TYPE":"U","NORAD_CAT_ID":51988,"ELEMENT_SET_NO":999,"REV_AT_EPOCH":20310,"BSTAR":0.00041688846,"MEAN_MOTION_DOT":6.355e-5,"MEAN_MOTION_DDOT":0},{"OBJECT_NAME":"STARLINK-3642","OBJECT_ID":"2022-025AK","EPOCH":"2025-11-10T03:32:40.190496","MEAN_MOTION":15.08829958,"ECCENTRICITY":0.00014046,"INCLINATION":53.2166,"RA_OF_ASC_NODE":215.7655,"ARG_OF_PERICENTER":81.1246,"MEAN_ANOMALY":278.9906,"EPHEMERIS_TYPE":0,"CLASSIFICATION_TYPE":"U","NORAD_CAT_ID":51989,"ELEMENT_SET_NO":999,"REV_AT_EPOCH":20301,"BSTAR":5.4106983e-5,"MEAN_MOTION_DOT":5.73e-6,"MEAN_MOTION_DDOT":0},{"OBJECT_NAME":"STARLINK-3657","OBJECT_ID":"2022-025AL","EPOCH":"2025-11-10T21:52:14.462400","MEAN_MOTION":15.08844649,"ECCENTRICITY":0.00013537,"INCLINATION":53.2157,"RA_OF_ASC_NODE":192.3395,"ARG_OF_PERICENTER":88.552,"MEAN_ANOMALY":271.5627,"EPHEMERIS_TYPE":0,"CLASSIFICATION_TYPE":"U","NORAD_CAT_ID":51990,"ELEMENT_SET_NO":999,"REV_AT_EPOCH":20340,"BSTAR":8.9355269e-5,"MEAN_MOTION_DOT":1.135e-5,"MEAN_MOTION_DDOT":0},{"OBJECT_NAME":"STARLINK-3652","OBJECT_ID":"2022-025AM","EPOCH":"2025-11-10T03:22:03.761184","MEAN_MOTION":15.08837734,"ECCENTRICITY":0.00015194,"INCLINATION":53.2168,"RA_OF_ASC_NODE":215.8001,"ARG_OF_PERICENTER":90.8412,"MEAN_ANOMALY":269.2755,"EPHEMERIS_TYPE":0,"CLASSIFICATION_TYPE":"U","NORAD_CAT_ID":51991,"ELEMENT_SET_NO":999,"REV_AT_EPOCH":20301,"BSTAR":0.00014917557,"MEAN_MOTION_DOT":2.087e-5,"MEAN_MOTION_DDOT":0}]
