STARLINK-3679           
1 51973U 22025T   25314.93326147  .00010161  00000+0  69965-3 0  9992
2 51973  53.0524 203.9463 0001382  88.4915 271.6233 15.06419764203026
STARLINK-3672           
1 51974U 22025U   25314.39144800  .00000538  00000+0  54994-4 0  9991
2 51974  53.0550 206.4360 0001502  78.0867 282.0290 15.06391356202939
STARLINK-3674           
1 51975U 22025V   25314.70714643  .00000093  00000+0  25135-4 0  9996
2 51975  53.0554 200.6138 0001273 100.1924 259.9209 15.06376802203055
STARLINK-3663           
1 51976U 22025W   25315.00003472  .00308938  00000+0  12710-2 0  9994
2 51976  53.2037 125.7849 0004688 199.7021 119.2140 15.84593839  5908
STARLINK-3660           
1 51977U 22025X   25314.38600159  .00000671  00000+0  60260-4 0  9998
2 51977  53.2180 194.7066 0001542  85.9563 274.1606 15.08836321203324
STARLINK-3649           
1 51980U 22025AA  25314.16978917  .00000149  00000+0  27488-4 0  9993
2 51980  53.2192 215.6670 0001923 103.0772 257.0435 15.08805190203018
STARLINK-3635           
1 51981U 22025AB  25314.71440116  .00001510  00000+0  11298-3 0  9994
2 51981  53.2177 213.2230 0001673  84.5177 275.6006 15.08837418203098
STARLINK-3655           
1 51983U 22025AD  25314.71074262 -.00000203  00000+0  53074-5 0  9990
2 51983  53.2169 213.2455 0001154  75.7628 284.3492 15.08822627203099
STARLINK-3664           
1 51984U 22025AE  25314.41728846  .00000171  00000+0  28807-4 0  9990
2 51984  53.2157 214.6430 0001143  96.0574 264.0549 15.08833730203050
STARLINK-3651           
1 51985U 22025AF  25314.96927519  .00001601  00000+0  11864-3 0  9992
2 51985  53.2168 212.0881 0001306  81.7391 278.3749 15.08848406203139
STARLINK-3645           
1 51986U 22025AG  25314.71806644  .00003239  00000+0  22153-3 0  9993
2 51986  53.2154 213.0504 0001347  84.5595 275.5551 15.08839635203101
STARLINK-3644           
1 51987U 22025AH  25314.74752096  .00000844  00000+0  71102-4 0  9996
2 51987  53.2191 213.0736 0001618 106.3732 253.7438 15.08832999203105
STARLINK-3640           
1 51988U 22025AJ  25314.72912202  .00006355  00000+0  41689-3 0  9991
2 51988  53.2150 213.1578 0001497  87.6904 272.4259 15.08850002203107
STARLINK-3642           
1 51989U 22025AK  25314.14768739  .00000573  00000+0  54107-4 0  9998
2 51989  53.2166 215.7655 0001404  81.1246 278.9906 15.08829958203011
STARLINK-3657           
1 51990U 22025AL  25314.91127850  .00001135  00000+0  89355-4 0  9996
2 51990  53.2157 192.3395 0001353  88.5520 271.5627 15.08844649203409
STARLINK-3652           
1 51991U 22025AM  25314.14032131  .00002087  00000+0  14918-3 0  9998
2 51991  53.2168 215.8001 0001519  90.8412 269.2755 15.08837734203017
